COSMOS 2433 (720)       
1 32275U 07052A   25106.36007219 -.00000042  00000+0  00000+0 0  9990
2 32275  65.8048 330.2632 0000910 267.1749  92.8675  2.13104159136000
COSMOS 2432 (719)       
1 32276U 07052B   25105.73170053 -.00000044  00000+0  00000+0 0  9990
2 32276  65.8204 330.4037 0009885 337.1193 206.1573  2.13103322135970
COSMOS 2434 (721)       
1 32393U 07065A   25106.76719823  .00000026  00000+0  00000+0 0  9991
2 32393  64.3150 206.3037 0002172  68.7818 135.1856  2.13101435134683
COSMOS 2436 (723)       
1 32395U 07065C   25106.40873007  .00000026  00000+0  00000+0 0  9999
2 32395  64.3236 206.3836 0016720   1.2970  61.7836  2.13100346134639
COSMOS 2456 (730)       
1 36111U 09070A   25106.53154866  .00000029  00000+0  00000+0 0  9999
2 36111  64.7666  85.5541 0006419 309.8522 228.8502  2.13103757119339
COSMOS 2457 (733)       
1 36112U 09070B   25106.82945944  .00000031  00000+0  00000+0 0  9990
2 36112  64.7518  85.3963 0002030 195.6230 342.9712  2.13101195119340
COSMOS 2460 (732)       
1 36402U 10007C   25106.38232266 -.00000041  00000+0  00000+0 0  9993
2 36402  65.6553 328.8741 0002261  46.8650 144.6569  2.13106300117639
COSMOS 2476 (744)       
1 37867U 11064A   25106.53928994  .00000032  00000+0  00000+0 0  9999
2 37867  65.0333  87.3008 0024330 242.2420 212.7668  2.13101602104729
COSMOS 2477 (745)       
1 37868U 11064B   25105.87420156  .00000028  00000+0  00000+0 0  9998
2 37868  65.0399  87.3989 0021565 243.8831 240.5463  2.13103088104654
COSMOS 2475 (743)       
1 37869U 11064C   25106.42443206  .00000032  00000+0  00000+0 0  9997
2 37869  65.0471  87.3977 0027144 256.2393 247.3192  2.13101837104679
COSMOS 2485 (747)       
1 39155U 13019A   25106.35517112  .00000032  00000+0  00000+0 0  9999
2 39155  65.1878  87.9538 0024586 238.1747 121.5727  2.13104574 93180
COSMOS 2492 (754)       
1 39620U 14012A   25104.43498259 -.00000046  00000+0  00000+0 0  9993
2 39620  65.5361 328.4725 0012606 330.2042  29.7790  2.13103336 86109
COSMOS 2500 (755)       
1 40001U 14032A   25106.01810927 -.00000041  00000+0  00000+0 0  9991
2 40001  65.4715 328.2004 0004943 189.6366 170.4052  2.13106026 84353
COSMOS 2501 (702K)      
1 40315U 14075A   25105.80545015  .00000026  00000+0  00000+0 0  9997
2 40315  63.6151 205.1713 0020612 207.8766 152.0461  2.13101468 80747
COSMOS 2514 (751)       
1 41330U 16008A   25106.25823759 -.00000040  00000+0  00000+0 0  9994
2 41330  65.2636 327.6248 0008669 204.5194 155.4894  2.13102725 71521
COSMOS 2522 (752)       
1 42939U 17055A   25106.56653688  .00000026  00000+0  00000+0 0  9992
2 42939  64.0766 206.4099 0008350 234.8917 125.0636  2.13101846 58886
COSMOS 2527 (756)       
1 43508U 18053A   25105.58786811  .00000028  00000+0  00000+0 0  9992
2 43508  65.3464  88.1945 0009303 247.3050 112.5835  2.13102301 53164
COSMOS 2529 (757)       
1 43687U 18086A   25105.68613886  .00000026  00000+0  00000+0 0  9996
2 43687  64.2926 207.0340 0009408 257.0643 102.8596  2.13102082 50176
COSMOS 2534 (758)       
1 44299U 19030A   25106.41572874  .00000026  00000+0  00000+0 0  9999
2 44299  64.3658 206.9913 0011172 280.3488  53.5929  2.13102419 45822
COSMOS 2544 (759)       
1 44850U 19088A   25106.47072281  .00000034  00000+0  00000+0 0  9997
2 44850  65.3340  87.9963 0015299 262.3528  97.4602  2.13102085 41601
COSMOS 2545 (760)       
1 45358U 20018A   25106.19816409 -.00000042  00000+0  00000+0 0  9993
2 45358  64.6016 327.3900 0007192 247.4867 112.4866  2.13102631 39561
COSMOS 2547 (705K)      
1 46805U 20075A   25106.38397902  .00000027  00000+0  00000+0 0  9999
2 46805  64.5957 206.7241 0007502 236.3622 123.5986  2.13100481 34811
COSMOS 2557 (706K)      
1 52984U 22075A   25105.14327480 -.00000048  00000+0  00000+0 0  9997
2 52984  64.5370 329.5294 0011003 285.1100  74.8215  2.13102085 21597
COSMOS 2559 (707K)      
1 54031U 22130A   25091.00919060 -.00000051  00000+0  00000+0 0  9998
2 54031  64.5157 330.1326 0005192 225.6156 134.3984  2.13101195 19268
COSMOS 2564 (761)       
1 54377U 22161A   25106.68399003  .00000026  00000+0  00000+0 0  9996
2 54377  64.7374 206.8734 0009979 216.7605 143.2042  2.13102068 18547
COSMOS 2569 (703K)      
1 57517U 23114A   25107.16812202  .00000037  00000+0  00000+0 0  9991
2 57517  65.0656  87.0128 0012819 295.0806  64.7731  2.13104001 13185
COSMOS 2584 (704K)      
1 63130U 25042A   25105.64686690  .00000026  00000+0  00000+0 0  9990
2 63130  64.8460  87.3628 0007511 237.1222 122.7916  2.13103626   934
